{
  "type": "FeatureCollection",
  "features": [
    {
      "type": "Feature",
      "properties": {
        "norad_id": 43260,
        "name": "GAOFEN-1 03",
        "group": "resource",
        "lat": -13.127500933449625,
        "lon": -142.37388136823523,
        "alt_km": 646.6092558906803,
        "timestamp": "2025-12-07T20:38:13.735097+00:00",
        "meta_object_name": "GAOFEN-1 03",
        "meta_object_id": "2018-031B",
        "meta_epoch": "2025-12-07T06:45:09.656064",
        "meta_mean_motion": 14.76420107,
        "meta_eccentricity": 0.00023355,
        "meta_inclination": 98.0803,
        "meta_ra_of_asc_node": 38.9461,
        "meta_arg_of_pericenter": 345.0519,
        "meta_mean_anomaly": 15.0621,
        "meta_ephemeris_type": 0,
        "meta_classification_type": "U",
        "meta_norad_cat_id": 43260,
        "meta_element_set_no": 999,
        "meta_rev_at_epoch": 41437,
        "meta_bstar": 0.00027643118,
        "meta_mean_motion_dot": 1.87e-05,
        "meta_mean_motion_ddot": 0,
        "tle_line1": "1 43260U 18031B   25341.28136176  .00001870  00000+0  27643-3 0  9997",
        "tle_line2": "2 43260  98.0803  38.9461 0002335 345.0519  15.0621 14.76420107414372"
      },
      "geometry": {
        "type": "Point",
        "coordinates": [
          -142.37388136823523,
          -13.127500933449625
        ]
      }
    },
    {
      "type": "Feature",
      "properties": {
        "norad_id": 43262,
        "name": "GAOFEN-1 04",
        "group": "resource",
        "lat": -37.371567220461046,
        "lon": 45.923483781523196,
        "alt_km": 647.0849170454412,
        "timestamp": "2025-12-07T20:38:13.735107+00:00",
        "meta_object_name": "GAOFEN-1 04",
        "meta_object_id": "2018-031D",
        "meta_epoch": "2025-12-07T06:10:09.775776",
        "meta_mean_motion": 14.76432951,
        "meta_eccentricity": 0.00011957,
        "meta_inclination": 98.0816,
        "meta_ra_of_asc_node": 39.0902,
        "meta_arg_of_pericenter": 60.1488,
        "meta_mean_anomaly": 299.9841,
        "meta_ephemeris_type": 0,
        "meta_classification_type": "U",
        "meta_norad_cat_id": 43262,
        "meta_element_set_no": 999,
        "meta_rev_at_epoch": 41436,
        "meta_bstar": 0.00027572705,
        "meta_mean_motion_dot": 1.866e-05,
        "meta_mean_motion_ddot": 0,
        "tle_line1": "1 43262U 18031D   25341.25705759  .00001866  00000+0  27573-3 0  9992",
        "tle_line2": "2 43262  98.0816  39.0902 0001195  60.1488 299.9841 14.76432951414369"
      },
      "geometry": {
        "type": "Point",
        "coordinates": [
          45.923483781523196,
          -37.371567220461046
        ]
      }
    },
    {
      "type": "Feature",
      "properties": {
        "norad_id": 43437,
        "name": "SENTINEL-3B",
        "group": "resource",
        "lat": -76.32440753126272,
        "lon": 85.71918691723425,
        "alt_km": 811.0361250747228,
        "timestamp": "2025-12-07T20:38:13.735116+00:00",
        "meta_object_name": "SENTINEL-3B",
        "meta_object_id": "2018-039A",
        "meta_epoch": "2025-12-07T04:10:39.137376",
        "meta_mean_motion": 14.26739546,
        "meta_eccentricity": 0.000151,
        "meta_inclination": 98.6272,
        "meta_ra_of_asc_node": 46.4388,
        "meta_arg_of_pericenter": 108.2092,
        "meta_mean_anomaly": 251.9253,
        "meta_ephemeris_type": 0,
        "meta_classification_type": "U",
        "meta_norad_cat_id": 43437,
        "meta_element_set_no": 999,
        "meta_rev_at_epoch": 39674,
        "meta_bstar": 0.00013669236,
        "meta_mean_motion_dot": 2.87e-06,
        "meta_mean_motion_ddot": 0,
        "tle_line1": "1 43437U 18039A   25341.17406409  .00000287  00000+0  13669-3 0  9992",
        "tle_line2": "2 43437  98.6272  46.4388 0001510 108.2092 251.9253 14.26739546396742"
      },
      "geometry": {
        "type": "Point",
        "coordinates": [
          85.71918691723425,
          -76.32440753126272
        ]
      }
    },
    {
      "type": "Feature",
      "properties": {
        "norad_id": 43461,
        "name": "GAOFEN-5 01",
        "group": "resource",
        "lat": 38.621698606796336,
        "lon": -62.06366616733061,
        "alt_km": 688.2682065883027,
        "timestamp": "2025-12-07T20:38:13.735127+00:00",
        "meta_object_name": "GAOFEN-5 01",
        "meta_object_id": "2018-043A",
        "meta_epoch": "2025-12-07T04:00:54.364032",
        "meta_mean_motion": 14.60400345,
        "meta_eccentricity": 0.00013326,
        "meta_inclination": 98.4317,
        "meta_ra_of_asc_node": 304.0375,
        "meta_arg_of_pericenter": 359.9517,
        "meta_mean_anomaly": 0.1682,
        "meta_ephemeris_type": 0,
        "meta_classification_type": "U",
        "meta_norad_cat_id": 43461,
        "meta_element_set_no": 999,
        "meta_rev_at_epoch": 40366,
        "meta_bstar": 0.00020515398,
        "meta_mean_motion_dot": 9.44e-06,
        "meta_mean_motion_ddot": 0,
        "tle_line1": "1 43461U 18043A   25341.16729588  .00000944  00000+0  20515-3 0  9997",
        "tle_line2": "2 43461  98.4317 304.0375 0001332 359.9517   0.1682 14.60400345403665"
      },
      "geometry": {
        "type": "Point",
        "coordinates": [
          -62.06366616733061,
          38.621698606796336
        ]
      }
    },
    {
      "type": "Feature",
      "properties": {
        "norad_id": 43484,
        "name": "GAOFEN-6",
        "group": "resource",
        "lat": 67.03358450174098,
        "lon": -114.82748682853108,
        "alt_km": 625.9259626743278,
        "timestamp": "2025-12-07T20:38:13.735137+00:00",
        "meta_object_name": "GAOFEN-6",
        "meta_object_id": "2018-048A",
        "meta_epoch": "2025-12-07T07:07:23.780928",
        "meta_mean_motion": 14.7655147,
        "meta_eccentricity": 0.00132956,
        "meta_inclination": 97.8039,
        "meta_ra_of_asc_node": 45.7464,
        "meta_arg_of_pericenter": 79.8131,
        "meta_mean_anomaly": 280.4578,
        "meta_ephemeris_type": 0,
        "meta_classification_type": "U",
        "meta_norad_cat_id": 43484,
        "meta_element_set_no": 999,
        "meta_rev_at_epoch": 40507,
        "meta_bstar": 0.00023652236,
        "meta_mean_motion_dot": 1.602e-05,
        "meta_mean_motion_ddot": 0,
        "tle_line1": "1 43484U 18048A   25341.29680302  .00001602  00000+0  23652-3 0  9998",
        "tle_line2": "2 43484  97.8039  45.7464 0013295  79.8131 280.4578 14.76551470405070"
      },
      "geometry": {
        "type": "Point",
        "coordinates": [
          -114.82748682853108,
          67.03358450174098
        ]
      }
    },
    {
      "type": "Feature",
      "properties": {
        "norad_id": 43585,
        "name": "GAOFEN-11 01",
        "group": "resource",
        "lat": 81.66368647797661,
        "lon": -14.196320416071407,
        "alt_km": 413.24738000861726,
        "timestamp": "2025-12-07T20:38:13.735147+00:00",
        "meta_object_name": "GAOFEN-11 01",
        "meta_object_id": "2018-063A",
        "meta_epoch": "2025-12-07T06:18:53.971488",
        "meta_mean_motion": 15.48994439,
        "meta_eccentricity": 0.00046537,
        "meta_inclination": 97.1563,
        "meta_ra_of_asc_node": 44.2442,
        "meta_arg_of_pericenter": 337.892,
        "meta_mean_anomaly": 22.213,
        "meta_ephemeris_type": 0,
        "meta_classification_type": "U",
        "meta_norad_cat_id": 43585,
        "meta_element_set_no": 999,
        "meta_rev_at_epoch": 41057,
        "meta_bstar": 0.00039055421,
        "meta_mean_motion_dot": 0.00021073,
        "meta_mean_motion_ddot": 0,
        "tle_line1": "1 43585U 18063A   25341.26312467  .00021073  00000+0  39055-3 0  9996",
        "tle_line2": "2 43585  97.1563  44.2442 0004653 337.8920  22.2130 15.48994439410571"
      },
      "geometry": {
        "type": "Point",
        "coordinates": [
          -14.196320416071407,
          81.66368647797661
        ]
      }
    },
    {
      "type": "Feature",
      "properties": {
        "norad_id": 43613,
        "name": "ICESAT-2",
        "group": "resource",
        "lat": -8.600198783656818,
        "lon": 59.116365401548734,
        "alt_km": 484.2833027997467,
        "timestamp": "2025-12-07T20:38:13.735157+00:00",
        "meta_object_name": "ICESAT-2",
        "meta_object_id": "2018-070A",
        "meta_epoch": "2025-12-07T05:40:15.182112",
        "meta_mean_motion": 15.28194413,
        "meta_eccentricity": 0.00018504,
        "meta_inclination": 92.0049,
        "meta_ra_of_asc_node": 239.2517,
        "meta_arg_of_pericenter": 161.1246,
        "meta_mean_anomaly": 199.0072,
        "meta_ephemeris_type": 0,
        "meta_classification_type": "U",
        "meta_norad_cat_id": 43613,
        "meta_element_set_no": 999,
        "meta_rev_at_epoch": 40314,
        "meta_bstar": 0.00066955961,
        "meta_mean_motion_dot": 0.00018409,
        "meta_mean_motion_ddot": 0,
        "tle_line1": "1 43613U 18070A   25341.23628683  .00018409  00000+0  66956-3 0  9992",
        "tle_line2": "2 43613  92.0049 239.2517 0001850 161.1246 199.0072 15.28194413403145"
      },
      "geometry": {
        "type": "Point",
        "coordinates": [
          59.116365401548734,
          -8.600198783656818
        ]
      }
    }
  ]
}